OBJECT_NAME,OBJECT_ID,EPOCH,MEAN_MOTION,ECCENTRICITY,INCLINATION,RA_OF_ASC_NODE,ARG_OF_PERICENTER,MEAN_ANOMALY,EPHEMERIS_TYPE,CLASSIFICATION_TYPE,NORAD_CAT_ID,ELEMENT_SET_NO,REV_AT_EPOCH,BSTAR,MEAN_MOTION_DOT,MEAN_MOTION_DDOT
S-NET A,2018-014J,2026-05-17T12:21:42.061824,15.16363649,.0010418,97.5405,42.6899,115.7189,244.5120,0,U,43188,999,45411,.16207E-3,.3081E-4,0
S-NET C,2018-014K,2026-05-17T12:44:04.325568,15.16318332,.0011907,97.5421,42.7753,110.0556,250.1959,0,U,43189,999,45266,.17231E-3,.3277E-4,0
PAZ,2018-020A,2026-05-16T14:55:37.159968,15.19158357,.00017234,97.4457,144.4562,87.6311,272.5121,0,U,43215,999,45621,.57963354E-4,.1151E-4,0
GOES 17,2018-022A,2026-05-17T08:25:38.793216,1.00270448,.000044,0.8601,86.1237,322.3629,223.4910,0,U,43226,999,3011,0,-.175E-5,0
LKW-4,2018-025A,2026-05-17T10:29:57.357024,15.59788923,.0002993,97.6328,305.9670,73.2215,286.9369,0,U,43236,999,45523,.35109E-3,.28074E-3,0
ZHUHAI-1 OVS-02,2018-040B,2026-05-17T12:27:28.312416,15.24581935,.0004332,97.0401,156.5751,38.2463,321.9082,0,U,43440,999,44804,.20136E-3,.4897E-4,0
ZHUHAI-1 OHS-02,2018-040C,2026-05-17T12:30:12.111264,15.25398606,.0008661,97.0388,163.4860,353.0807,7.0311,0,U,43441,999,10960,.19899E-3,.4963E-4,0
GAOFEN-6,2018-048A,2026-05-17T12:13:38.473248,14.76592288,.0010497,97.7779,201.3147,275.7045,84.2968,0,U,43484,999,42886,.5942E-4,.366E-5,0
LUOJIA-1 01,2018-048B,2026-05-17T11:51:34.908192,14.87158517,.0008115,97.8107,216.1767,214.7649,145.3037,0,U,43485,999,42965,.18646E-3,.1623E-4,0
PAKTES 1A,2018-056A,2026-05-17T13:34:54.699168,14.98915960,.0021537,98.1220,292.7558,208.7259,151.2778,0,U,43529,999,42733,.14776E-3,.1729E-4,0
PRSS-1,2018-056B,2026-05-17T11:14:40.883136,14.81934755,.0001825,97.7836,206.1876,91.1165,269.0257,0,U,43530,999,42388,.49656E-4,.342E-5,0
HAIYANG-1C,2018-068A,2026-05-17T11:28:13.201248,14.34168550,.0010843,98.5204,210.2278,179.2325,180.8878,0,U,43609,999,40268,.27743E-4,.34E-6,0
SSTL S1-4,2018-071A,2026-05-17T12:35:46.593312,14.96173858,.000124,97.5070,10.4083,76.5231,283.6129,0,U,43618,999,41835,.89527E-4,.954E-5,0
HAIYANG-2B,2018-081A,2026-05-17T13:14:23.708256,13.79307638,.0001588,99.3288,146.7694,46.6377,313.4907,0,U,43655,999,38070,.3357E-3,.3E-5,0
CFOSAT,2018-083A,2026-05-17T11:24:44.534016,15.16496434,.0001637,97.3608,142.9108,62.1229,298.0170,0,U,43662,999,41778,.11748E-3,.2223E-4,0
TEN-KOH,2018-084G,2026-05-17T11:54:55.554048,15.02783763,.0008738,98.0752,328.5707,216.4655,143.5974,0,U,43677,999,41155,.71798E-4,.894E-5,0
DIWATA-2B,2018-084H,2026-05-17T11:48:16.708320,15.00291260,.0011767,98.1107,332.3824,276.6681,83.3202,0,U,43678,999,41161,.16992E-3,.2066E-4,0
STARS-AO,2018-084J,2026-05-17T12:44:32.236224,15.16683537,.000063,98.0528,349.6169,267.0526,93.0633,0,U,43679,999,41282,.22761E-3,.4382E-4,0
AUTCUBE 2,2018-084K,2026-05-17T13:09:50.747328,15.09861043,.0009985,98.0730,342.1005,139.8837,220.3130,0,U,43681,999,41230,.12982E-3,.2032E-4,0
METOP-C,2018-087A,2026-05-17T10:47:10.832352,14.21503032,.000041,98.6660,197.6118,141.7154,218.4052,0,U,43689,999,39046,.5161E-4,.7E-6,0
ES'HAIL 2,2018-090A,2026-05-17T07:38:41.886240,1.00268705,.0001178,0.0173,302.7385,139.4062,293.3677,0,U,43700,999,2736,0,.152E-5,0
MOHAMMED VI-B,2018-095A,2026-05-17T11:45:33.365664,14.77073232,.0001279,97.9570,210.2358,79.5035,280.6319,0,U,43717,999,40365,.62791E-4,.392E-5,0
HYSIS,2018-096A,2026-05-17T11:44:34.197216,14.78626631,.0000948,97.9857,204.4749,110.7680,249.3633,0,U,43719,999,40288,.16817E-3,.118E-4,0
COSMOS 2530 (RODNIK-S 16),2018-097A,2026-05-17T13:06:33.539328,12.42880051,.0020788,82.5156,241.2941,103.3626,256.9773,0,U,43751,999,33848,-.49235E-3,-.58E-6,0
COSMOS 2531 (RODNIK-S 17),2018-097B,2026-05-17T13:39:43.684704,12.42911644,.0017938,82.5200,242.3280,121.1585,239.1256,0,U,43752,999,33850,-.56104E-3,-.68E-6,0
COSMOS 2532 (RODNIK-S 18),2018-097C,2026-05-17T12:24:25.127136,12.42908480,.0019297,82.5146,241.1603,123.3127,236.9804,0,U,43753,999,33846,-.24566E-3,-.24E-6,0
MINXSS-2,2018-099A,2026-05-17T11:20:47.440320,15.44770344,.0007005,97.4548,212.9076,28.3061,331.8567,0,U,43758,999,40938,.46801E-3,.21854E-3,0
SIRION PATHFINDER-2,2018-099B,2026-05-17T09:22:50.221056,15.14244237,.0009997,97.4274,187.1834,54.6375,305.5790,0,U,43759,999,40796,.18296E-3,.3283E-4,0
AISTECHSAT 2,2018-099L,2026-05-17T09:10:02.722944,15.15107514,.0006003,97.4316,186.0941,60.0529,300.1299,0,U,43768,999,40761,.18851E-3,.3466E-4,0
FOX-1CLIFF (AO-95),2018-099N,2026-05-17T03:13:18.960672,15.25987723,.0010464,97.4405,197.5090,98.8817,261.3606,0,U,43770,999,40848,.36622E-3,.9357E-4,0
