S-NET A                 
1 43188U 18014J   26137.51507016  .00003081  00000+0  16207-3 0  9992
2 43188  97.5405  42.6899 0010418 115.7189 244.5120 15.16363649454117
S-NET C                 
1 43189U 18014K   26137.53060562  .00003277  00000+0  17231-3 0  9990
2 43189  97.5421  42.7753 0011907 110.0556 250.1959 15.16318332452666
PAZ                     
1 43215U 18020A   26136.62195787  .00001151  00000+0  57963-4 0  9990
2 43215  97.4457 144.4562 0001723  87.6311 272.5121 15.19158357456211
GOES 17                 
1 43226U 18022A   26137.35114344 -.00000175  00000+0  00000+0 0  9996
2 43226   0.8601  86.1237 0000440 322.3629 223.4910  1.00270448 30118
LKW-4                   
1 43236U 18025A   26137.43746941  .00028074  00000+0  35109-3 0  9992
2 43236  97.6328 305.9670 0002993  73.2215 286.9369 15.59788923455237
ZHUHAI-1 OVS-02         
1 43440U 18040B   26137.51907769  .00004897  00000+0  20136-3 0  9993
2 43440  97.0401 156.5751 0004332  38.2463 321.9082 15.24581935448044
ZHUHAI-1 OHS-02         
1 43441U 18040C   26137.52097351  .00004963  00000+0  19899-3 0  9990
2 43441  97.0388 163.4860 0008661 353.0807   7.0311 15.25398606109601
GAOFEN-6                
1 43484U 18048A   26137.50947307  .00000366  00000+0  59420-4 0  9996
2 43484  97.7779 201.3147 0010497 275.7045  84.2968 14.76592288428867
LUOJIA-1 01             
1 43485U 18048B   26137.49415403  .00001623  00000+0  18646-3 0  9993
2 43485  97.8107 216.1767 0008115 214.7649 145.3037 14.87158517429652
PAKTES 1A               
1 43529U 18056A   26137.56591087  .00001729  00000+0  14776-3 0  9999
2 43529  98.1220 292.7558 0021537 208.7259 151.2778 14.98915960427338
PRSS-1                  
1 43530U 18056B   26137.46852874  .00000342  00000+0  49656-4 0  9990
2 43530  97.7836 206.1876 0001825  91.1165 269.0257 14.81934755423889
HAIYANG-1C              
1 43609U 18068A   26137.47793057  .00000034  00000+0  27743-4 0  9999
2 43609  98.5204 210.2278 0010843 179.2325 180.8878 14.34168550402686
SSTL S1-4               
1 43618U 18071A   26137.52484483  .00000954  00000+0  89527-4 0  9998
2 43618  97.5070  10.4083 0001240  76.5231 283.6129 14.96173858418353
HAIYANG-2B              
1 43655U 18081A   26137.55166329  .00000300  00000+0  33570-3 0  9990
2 43655  99.3288 146.7694 0001588  46.6377 313.4907 13.79307638380708
CFOSAT                  
1 43662U 18083A   26137.47551544  .00002223  00000+0  11748-3 0  9997
2 43662  97.3608 142.9108 0001637  62.1229 298.0170 15.16496434417787
TEN-KOH                 
1 43677U 18084G   26137.49647632  .00000894  00000+0  71798-4 0  9994
2 43677  98.0752 328.5707 0008738 216.4655 143.5974 15.02783763411558
DIWATA-2B               
1 43678U 18084H   26137.49186005  .00002066  00000+0  16992-3 0  9994
2 43678  98.1107 332.3824 0011767 276.6681  83.3202 15.00291260411616
STARS-AO                
1 43679U 18084J   26137.53092866  .00004382  00000+0  22761-3 0  9995
2 43679  98.0528 349.6169 0000630 267.0526  93.0633 15.16683537412824
AUTCUBE 2               
1 43681U 18084K   26137.54850402  .00002032  00000+0  12982-3 0  9991
2 43681  98.0730 342.1005 0009985 139.8837 220.3130 15.09861043412304
METOP-C                 
1 43689U 18087A   26137.44943093  .00000070  00000+0  51610-4 0  9992
2 43689  98.6660 197.6118 0000410 141.7154 218.4052 14.21503032390463
ES'HAIL 2               
1 43700U 18090A   26137.31854035  .00000152  00000+0  00000+0 0  9996
2 43700   0.0173 302.7385 0001178 139.4062 293.3677  1.00268705 27361
MOHAMMED VI-B           
1 43717U 18095A   26137.48996951  .00000392  00000+0  62791-4 0  9997
2 43717  97.9570 210.2358 0001279  79.5035 280.6319 14.77073232403653
HYSIS                   
1 43719U 18096A   26137.48928469  .00001180  00000+0  16817-3 0  9992
2 43719  97.9857 204.4749 0000948 110.7680 249.3633 14.78626631402881
COSMOS 2530 (RODNIK-S *)
1 43751U 18097A   26137.54622152 -.00000058  00000+0 -49235-3 0  9991
2 43751  82.5156 241.2941 0020788 103.3626 256.9773 12.42880051338484
COSMOS 2531 (RODNIK-S *)
1 43752U 18097B   26137.56925561 -.00000068  00000+0 -56104-3 0  9998
2 43752  82.5200 242.3280 0017938 121.1585 239.1256 12.42911644338503
COSMOS 2532 (RODNIK-S *)
1 43753U 18097C   26137.51695749 -.00000024  00000+0 -24566-3 0  9995
2 43753  82.5146 241.1603 0019297 123.3127 236.9804 12.42908480338468
MINXSS-2                
1 43758U 18099A   26137.47277130  .00021854  00000+0  46801-3 0  9995
2 43758  97.4548 212.9076 0007005  28.3061 331.8567 15.44770344409381
SIRION PATHFINDER-2     
1 43759U 18099B   26137.39085904  .00003283  00000+0  18296-3 0  9996
2 43759  97.4274 187.1834 0009997  54.6375 305.5790 15.14244237407967
AISTECHSAT 2            
1 43768U 18099L   26137.38197596  .00003466  00000+0  18851-3 0  9996
2 43768  97.4316 186.0941 0006003  60.0529 300.1299 15.15107514407612
FOX-1CLIFF (AO-95)      
1 43770U 18099N   26137.13424723  .00009357  00000+0  36622-3 0  9998
2 43770  97.4405 197.5090 0010464  98.8817 261.3606 15.25987723408486
